ONEWEB-0033             
1 45142U 20008M   25006.41516465  .00000181  00000+0  48181-3 0  9995
2 45142  87.8910 141.2390 0001599 110.0254 250.1046 13.10377555239221
ONEWEB-0035             
1 45143U 20008N   25006.37035335  .00000344  00000+0  94968-3 0  9998
2 45143  87.8911 141.2402 0001530 107.7666 252.3629 13.10371765238948
ONEWEB-0036             
1 45144U 20008P   25006.36040025  .00000722  00000+0  20316-2 0  9995
2 45144  87.8908 141.1910 0001547  94.7348 265.3956 13.10373617239371
ONEWEB-0038             
1 45145U 20008Q   25006.55655008  .00000360  00000+0  98073-3 0  9994
2 45145  87.8907 126.0099 0000851 104.9102 255.2120 13.11417396241301
ONEWEB-0039             
1 45146U 20008R   25006.41848686  .00000373  00000+0  10332-2 0  9991
2 45146  87.8912 141.1998 0001136  80.7832 279.3424 13.10377175239177
ONEWEB-0040             
1 45147U 20008S   25006.41184117 -.00000044  00000+0 -16260-3 0  9998
2 45147  87.8920 141.2159 0001455 102.2720 257.8571 13.10376736238879
ONEWEB-0043             
1 45149U 20008U   25006.41350192  .00000013  00000+0  23585-5 0  9992
2 45149  87.8913 141.2114 0001462  83.6853 276.4441 13.10377822239197
ONEWEB-0044             
1 45150U 20008V   25006.36537760  .00000586  00000+0  16437-2 0  9996
2 45150  87.8908 141.2142 0001429  93.3380 266.7911 13.10372656239486
